LANDSAT 9               
1 49260U 21088A   23293.21001476  .00000846  00000+0  19790-3 0  9996
2 49260  98.2178   1.5319 0001128  89.5753 270.5574 14.57111980109609
